ONEWEB-0102             
1 47258U 20100A   25052.61193429  .00000363  00000+0  97357-3 0  9993
2 47258  87.8813  86.3550 0001968  90.3693 269.7661 13.12441714201697
ONEWEB-0109             
1 47259U 20100B   25052.62004009  .00000403  00000+0  10848-2 0  9994
2 47259  87.8813  86.3205 0001953  93.4496 266.6856 13.12442820201527
ONEWEB-0110             
1 47260U 20100C   25052.56974888 -.00000311  00000+0 -90064-3 0  9999
2 47260  87.8807  86.3217 0002013  94.3049 265.8309 13.12441739201686
ONEWEB-0111             
1 47261U 20100D   25052.60057638  .00000142  00000+0  35830-3 0  9990
2 47261  87.8814  86.3243 0001936  92.6186 267.5165 13.12442119201525
ONEWEB-0114             
1 47262U 20100E   25052.55515457  .00000132  00000+0  33117-3 0  9998
2 47262  87.8807  86.3381 0001927  83.8477 276.2871 13.12441796201471
ONEWEB-0117             
1 47263U 20100F   25052.54704454  .00000344  00000+0  92106-3 0  9993
2 47263  87.8812  86.3259 0001908  96.5391 263.5954 13.12442231201484
ONEWEB-0118             
1 47264U 20100G   25052.57948449 -.00000378  00000+0 -10865-2 0  9991
2 47264  87.8811  86.3215 0001670  85.6825 274.4495 13.12441816201684
ONEWEB-0119             
1 47265U 20100H   25052.60706733  .00000373  00000+0  10016-2 0  9995
2 47265  87.8813  86.3551 0001954  93.7280 266.4072 13.12442314201664
