<?xml version="1.0" encoding="UTF-8"?>
<ndm xmlns:xsi="http://www.w3.org/2001/XMLSchema-instance" xsi:noNamespaceSchemaLocation="https://sanaregistry.org/r/ndmxml_unqualified/ndmxml-2.0.0-master-2.0.xsd">
<omm id="CCSDS_OMM_VERS" version="2.0">
<header><CREATION_DATE/><ORIGINATOR/></header><body><segment><metadata><OBJECT_NAME>ONEWEB-0102</OBJECT_NAME><OBJECT_ID>2020-100A</OBJECT_ID><CENTER_NAME>EARTH</CENTER_NAME><REF_FRAME>TEME</REF_FRAME><TIME_SYSTEM>UTC</TIME_SYSTEM><MEAN_ELEMENT_THEORY>SGP4</MEAN_ELEMENT_THEORY></metadata><data><meanElements><EPOCH>2025-02-21T14:41:11.122656</EPOCH><MEAN_MOTION>13.12441714</MEAN_MOTION><ECCENTRICITY>.0001968</ECCENTRICITY><INCLINATION>87.8813</INCLINATION><RA_OF_ASC_NODE>86.3550</RA_OF_ASC_NODE><ARG_OF_PERICENTER>90.3693</ARG_OF_PERICENTER><MEAN_ANOMALY>269.7661</MEAN_ANOMALY></meanElements><tleParameters><EPHEMERIS_TYPE>0</EPHEMERIS_TYPE><CLASSIFICATION_TYPE>U</CLASSIFICATION_TYPE><NORAD_CAT_ID>47258</NORAD_CAT_ID><ELEMENT_SET_NO>999</ELEMENT_SET_NO><REV_AT_EPOCH>20169</REV_AT_EPOCH><BSTAR>.97357E-3</BSTAR><MEAN_MOTION_DOT>.363E-5</MEAN_MOTION_DOT><MEAN_MOTION_DDOT>0</MEAN_MOTION_DDOT></tleParameters></data></segment></body></omm>
<omm id="CCSDS_OMM_VERS" version="2.0">
<header><CREATION_DATE/><ORIGINATOR/></header><body><segment><metadata><OBJECT_NAME>ONEWEB-0109</OBJECT_NAME><OBJECT_ID>2020-100B</OBJECT_ID><CENTER_NAME>EARTH</CENTER_NAME><REF_FRAME>TEME</REF_FRAME><TIME_SYSTEM>UTC</TIME_SYSTEM><MEAN_ELEMENT_THEORY>SGP4</MEAN_ELEMENT_THEORY></metadata><data><meanElements><EPOCH>2025-02-21T14:52:51.463776</EPOCH><MEAN_MOTION>13.12442820</MEAN_MOTION><ECCENTRICITY>.0001953</ECCENTRICITY><INCLINATION>87.8813</INCLINATION><RA_OF_ASC_NODE>86.3205</RA_OF_ASC_NODE><ARG_OF_PERICENTER>93.4496</ARG_OF_PERICENTER><MEAN_ANOMALY>266.6856</MEAN_ANOMALY></meanElements><tleParameters><EPHEMERIS_TYPE>0</EPHEMERIS_TYPE><CLASSIFICATION_TYPE>U</CLASSIFICATION_TYPE><NORAD_CAT_ID>47259</NORAD_CAT_ID><ELEMENT_SET_NO>999</ELEMENT_SET_NO><REV_AT_EPOCH>20152</REV_AT_EPOCH><BSTAR>.10848E-2</BSTAR><MEAN_MOTION_DOT>.403E-5</MEAN_MOTION_DOT><MEAN_MOTION_DDOT>0</MEAN_MOTION_DDOT></tleParameters></data></segment></body></omm>
<omm id="CCSDS_OMM_VERS" version="2.0">
<header><CREATION_DATE/><ORIGINATOR/></header><body><segment><metadata><OBJECT_NAME>ONEWEB-0110</OBJECT_NAME><OBJECT_ID>2020-100C</OBJECT_ID><CENTER_NAME>EARTH</CENTER_NAME><REF_FRAME>TEME</REF_FRAME><TIME_SYSTEM>UTC</TIME_SYSTEM><MEAN_ELEMENT_THEORY>SGP4</MEAN_ELEMENT_THEORY></metadata><data><meanElements><EPOCH>2025-02-21T13:40:26.303232</EPOCH><MEAN_MOTION>13.12441739</MEAN_MOTION><ECCENTRICITY>.0002013</ECCENTRICITY><INCLINATION>87.8807</INCLINATION><RA_OF_ASC_NODE>86.3217</RA_OF_ASC_NODE><ARG_OF_PERICENTER>94.3049</ARG_OF_PERICENTER><MEAN_ANOMALY>265.8309</MEAN_ANOMALY></meanElements><tleParameters><EPHEMERIS_TYPE>0</EPHEMERIS_TYPE><CLASSIFICATION_TYPE>U</CLASSIFICATION_TYPE><NORAD_CAT_ID>47260</NORAD_CAT_ID><ELEMENT_SET_NO>999</ELEMENT_SET_NO><REV_AT_EPOCH>20168</REV_AT_EPOCH><BSTAR>-.90064E-3</BSTAR><MEAN_MOTION_DOT>-.311E-5</MEAN_MOTION_DOT><MEAN_MOTION_DDOT>0</MEAN_MOTION_DDOT></tleParameters></data></segment></body></omm>
<omm id="CCSDS_OMM_VERS" version="2.0">
<header><CREATION_DATE/><ORIGINATOR/></header><body><segment><metadata><OBJECT_NAME>ONEWEB-0111</OBJECT_NAME><OBJECT_ID>2020-100D</OBJECT_ID><CENTER_NAME>EARTH</CENTER_NAME><REF_FRAME>TEME</REF_FRAME><TIME_SYSTEM>UTC</TIME_SYSTEM><MEAN_ELEMENT_THEORY>SGP4</MEAN_ELEMENT_THEORY></metadata><data><meanElements><EPOCH>2025-02-21T14:24:49.799232</EPOCH><MEAN_MOTION>13.12442119</MEAN_MOTION><ECCENTRICITY>.0001936</ECCENTRICITY><INCLINATION>87.8814</INCLINATION><RA_OF_ASC_NODE>86.3243</RA_OF_ASC_NODE><ARG_OF_PERICENTER>92.6186</ARG_OF_PERICENTER><MEAN_ANOMALY>267.5165</MEAN_ANOMALY></meanElements><tleParameters><EPHEMERIS_TYPE>0</EPHEMERIS_TYPE><CLASSIFICATION_TYPE>U</CLASSIFICATION_TYPE><NORAD_CAT_ID>47261</NORAD_CAT_ID><ELEMENT_SET_NO>999</ELEMENT_SET_NO><REV_AT_EPOCH>20152</REV_AT_EPOCH><BSTAR>.3583E-3</BSTAR><MEAN_MOTION_DOT>.142E-5</MEAN_MOTION_DOT><MEAN_MOTION_DDOT>0</MEAN_MOTION_DDOT></tleParameters></data></segment></body></omm>
<omm id="CCSDS_OMM_VERS" version="2.0">
<header><CREATION_DATE/><ORIGINATOR/></header><body><segment><metadata><OBJECT_NAME>ONEWEB-0114</OBJECT_NAME><OBJECT_ID>2020-100E</OBJECT_ID><CENTER_NAME>EARTH</CENTER_NAME><REF_FRAME>TEME</REF_FRAME><TIME_SYSTEM>UTC</TIME_SYSTEM><MEAN_ELEMENT_THEORY>SGP4</MEAN_ELEMENT_THEORY></metadata><data><meanElements><EPOCH>2025-02-21T13:19:25.354848</EPOCH><MEAN_MOTION>13.12441796</MEAN_MOTION><ECCENTRICITY>.0001927</ECCENTRICITY><INCLINATION>87.8807</INCLINATION><RA_OF_ASC_NODE>86.3381</RA_OF_ASC_NODE><ARG_OF_PERICENTER>83.8477</ARG_OF_PERICENTER><MEAN_ANOMALY>276.2871</MEAN_ANOMALY></meanElements><tleParameters><EPHEMERIS_TYPE>0</EPHEMERIS_TYPE><CLASSIFICATION_TYPE>U</CLASSIFICATION_TYPE><NORAD_CAT_ID>47262</NORAD_CAT_ID><ELEMENT_SET_NO>999</ELEMENT_SET_NO><REV_AT_EPOCH>20147</REV_AT_EPOCH><BSTAR>.33117E-3</BSTAR><MEAN_MOTION_DOT>.132E-5</MEAN_MOTION_DOT><MEAN_MOTION_DDOT>0</MEAN_MOTION_DDOT></tleParameters></data></segment></body></omm>
<omm id="CCSDS_OMM_VERS" version="2.0">
<header><CREATION_DATE/><ORIGINATOR/></header><body><segment><metadata><OBJECT_NAME>ONEWEB-0117</OBJECT_NAME><OBJECT_ID>2020-100F</OBJECT_ID><CENTER_NAME>EARTH</CENTER_NAME><REF_FRAME>TEME</REF_FRAME><TIME_SYSTEM>UTC</TIME_SYSTEM><MEAN_ELEMENT_THEORY>SGP4</MEAN_ELEMENT_THEORY></metadata><data><meanElements><EPOCH>2025-02-21T13:07:44.648256</EPOCH><MEAN_MOTION>13.12442231</MEAN_MOTION><ECCENTRICITY>.0001908</ECCENTRICITY><INCLINATION>87.8812</INCLINATION><RA_OF_ASC_NODE>86.3259</RA_OF_ASC_NODE><ARG_OF_PERICENTER>96.5391</ARG_OF_PERICENTER><MEAN_ANOMALY>263.5954</MEAN_ANOMALY></meanElements><tleParameters><EPHEMERIS_TYPE>0</EPHEMERIS_TYPE><CLASSIFICATION_TYPE>U</CLASSIFICATION_TYPE><NORAD_CAT_ID>47263</NORAD_CAT_ID><ELEMENT_SET_NO>999</ELEMENT_SET_NO><REV_AT_EPOCH>20148</REV_AT_EPOCH><BSTAR>.92106E-3</BSTAR><MEAN_MOTION_DOT>.344E-5</MEAN_MOTION_DOT><MEAN_MOTION_DDOT>0</MEAN_MOTION_DDOT></tleParameters></data></segment></body></omm>
<omm id="CCSDS_OMM_VERS" version="2.0">
<header><CREATION_DATE/><ORIGINATOR/></header><body><segment><metadata><OBJECT_NAME>ONEWEB-0118</OBJECT_NAME><OBJECT_ID>2020-100G</OBJECT_ID><CENTER_NAME>EARTH</CENTER_NAME><REF_FRAME>TEME</REF_FRAME><TIME_SYSTEM>UTC</TIME_SYSTEM><MEAN_ELEMENT_THEORY>SGP4</MEAN_ELEMENT_THEORY></metadata><data><meanElements><EPOCH>2025-02-21T13:54:27.459936</EPOCH><MEAN_MOTION>13.12441816</MEAN_MOTION><ECCENTRICITY>.000167</ECCENTRICITY><INCLINATION>87.8811</INCLINATION><RA_OF_ASC_NODE>86.3215</RA_OF_ASC_NODE><ARG_OF_PERICENTER>85.6825</ARG_OF_PERICENTER><MEAN_ANOMALY>274.4495</MEAN_ANOMALY></meanElements><tleParameters><EPHEMERIS_TYPE>0</EPHEMERIS_TYPE><CLASSIFICATION_TYPE>U</CLASSIFICATION_TYPE><NORAD_CAT_ID>47264</NORAD_CAT_ID><ELEMENT_SET_NO>999</ELEMENT_SET_NO><REV_AT_EPOCH>20168</REV_AT_EPOCH><BSTAR>-.10865E-2</BSTAR><MEAN_MOTION_DOT>-.378E-5</MEAN_MOTION_DOT><MEAN_MOTION_DDOT>0</MEAN_MOTION_DDOT></tleParameters></data></segment></body></omm>
<omm id="CCSDS_OMM_VERS" version="2.0">
<header><CREATION_DATE/><ORIGINATOR/></header><body><segment><metadata><OBJECT_NAME>ONEWEB-0119</OBJECT_NAME><OBJECT_ID>2020-100H</OBJECT_ID><CENTER_NAME>EARTH</CENTER_NAME><REF_FRAME>TEME</REF_FRAME><TIME_SYSTEM>UTC</TIME_SYSTEM><MEAN_ELEMENT_THEORY>SGP4</MEAN_ELEMENT_THEORY></metadata><data><meanElements><EPOCH>2025-02-21T14:34:10.617312</EPOCH><MEAN_MOTION>13.12442314</MEAN_MOTION><ECCENTRICITY>.0001954</ECCENTRICITY><INCLINATION>87.8813</INCLINATION><RA_OF_ASC_NODE>86.3551</RA_OF_ASC_NODE><ARG_OF_PERICENTER>93.7280</ARG_OF_PERICENTER><MEAN_ANOMALY>266.4072</MEAN_ANOMALY></meanElements><tleParameters><EPHEMERIS_TYPE>0</EPHEMERIS_TYPE><CLASSIFICATION_TYPE>U</CLASSIFICATION_TYPE><NORAD_CAT_ID>47265</NORAD_CAT_ID><ELEMENT_SET_NO>999</ELEMENT_SET_NO><REV_AT_EPOCH>20166</REV_AT_EPOCH><BSTAR>.10016E-2</BSTAR><MEAN_MOTION_DOT>.373E-5</MEAN_MOTION_DOT><MEAN_MOTION_DDOT>0</MEAN_MOTION_DDOT></tleParameters></data></segment></body></omm>

</ndm>
